[{"OBJECT_NAME":"GLOBALSTAR M091","OBJECT_ID":"2011-033C","EPOCH":"2026-03-09T12:19:51.159648","MEAN_MOTION":12.62270327,"ECCENTRICITY":8.483e-5,"INCLINATION":51.9991,"RA_OF_ASC_NODE":185.3633,"ARG_OF_PERICENTER":103.6138,"MEAN_ANOMALY":336.8704,"EPHEMERIS_TYPE":0,"CLASSIFICATION_TYPE":"U","NORAD_CAT_ID":37741,"ELEMENT_SET_NO":999,"REV_AT_EPOCH":67669,"BSTAR":0.00014268137,"MEAN_MOTION_DOT":-7.8e-7,"MEAN_MOTION_DDOT":0},{"OBJECT_NAME":"COSMOS 2273","OBJECT_ID":"1994-011F","EPOCH":"2026-03-09T22:59:28.012704","MEAN_MOTION":12.6291669,"ECCENTRICITY":0.00062979,"INCLINATION":82.5787,"RA_OF_ASC_NODE":18.4381,"ARG_OF_PERICENTER":58.9961,"MEAN_ANOMALY":7.4479,"EPHEMERIS_TYPE":0,"CLASSIFICATION_TYPE":"U","NORAD_CAT_ID":23004,"ELEMENT_SET_NO":999,"REV_AT_EPOCH":47822,"BSTAR":0.00017556378,"MEAN_MOTION_DOT":4.2e-7,"MEAN_MOTION_DDOT":0}]
